[{"OBJECT_NAME":"GAOFEN-9 05","OBJECT_ID":"2020-058A","EPOCH":"2026-03-10T00:01:50.876256","MEAN_MOTION":15.30293976,"ECCENTRICITY":0.0010522,"INCLINATION":97.2228,"RA_OF_ASC_NODE":111.963,"ARG_OF_PERICENTER":91.0204,"MEAN_ANOMALY":269.2242,"EPHEMERIS_TYPE":0,"CLASSIFICATION_TYPE":"U","NORAD_CAT_ID":46232,"ELEMENT_SET_NO":999,"REV_AT_EPOCH":30843,"BSTAR":0.00025120304,"MEAN_MOTION_DOT":7.299e-5,"MEAN_MOTION_DDOT":0},{"OBJECT_NAME":"STARLINK-32659","OBJECT_ID":"2024-249U","EPOCH":"2026-03-09T23:22:57.363456","MEAN_MOTION":15.27603893,"ECCENTRICITY":0.00013021,"INCLINATION":42.9991,"RA_OF_ASC_NODE":312.7722,"ARG_OF_PERICENTER":256.0996,"MEAN_ANOMALY":103.9711,"EPHEMERIS_TYPE":0,"CLASSIFICATION_TYPE":"U","NORAD_CAT_ID":62427,"ELEMENT_SET_NO":999,"REV_AT_EPOCH":6785,"BSTAR":0.0014840477,"MEAN_MOTION_DOT":0.00040832,"MEAN_MOTION_DDOT":0}]
